[{"OBJECT_NAME":"STARLINK-32473","OBJECT_ID":"2024-216T","EPOCH":"2026-03-09T22:38:02.773824","MEAN_MOTION":15.27595792,"ECCENTRICITY":0.0002395,"INCLINATION":42.9993,"RA_OF_ASC_NODE":254.9523,"ARG_OF_PERICENTER":276.5576,"MEAN_ANOMALY":83.5003,"EPHEMERIS_TYPE":0,"CLASSIFICATION_TYPE":"U","NORAD_CAT_ID":62049,"ELEMENT_SET_NO":999,"REV_AT_EPOCH":7275,"BSTAR":0.0009634088,"MEAN_MOTION_DOT":0.00026357,"MEAN_MOTION_DDOT":0},{"OBJECT_NAME":"USA 55","OBJECT_ID":"1990-028B","EPOCH":"2026-03-09T23:32:27.967200","MEAN_MOTION":15.43003152,"ECCENTRICITY":0.00579189,"INCLINATION":94.0887,"RA_OF_ASC_NODE":87.6293,"ARG_OF_PERICENTER":152.9949,"MEAN_ANOMALY":207.4341,"EPHEMERIS_TYPE":0,"CLASSIFICATION_TYPE":"U","NORAD_CAT_ID":20547,"ELEMENT_SET_NO":999,"REV_AT_EPOCH":98658,"BSTAR":0.00013659834,"MEAN_MOTION_DOT":6.373e-5,"MEAN_MOTION_DDOT":0}]
